ASTROCAST-0404          
1 55112U 23001DH  26068.80836714  .00008870  00000+0  34436-3 0  9994
2 55112  97.5646 161.5422 0006847   1.1317 358.9936 15.26309833129366
STARLINK-31812          
1 59800U 24093U   26068.42330934 -.00002089  00000+0 -66400-4 0  9990
2 59800  43.0000 210.4852 0001443 270.2523  89.8163 15.27577257102721
